ONEWEB-0516             
1 54134U 22138X   26025.30838329  .00000063  00000+0  12485-3 0  9995
2 54134  87.9236 333.4135 0001659  81.1886 278.9434 13.19726314157983
ONEWEB-0517             
1 54135U 22138Y   26025.21202300  .00000012  00000+0 -23058-5 0  9995
2 54135  87.9245 333.4184 0002003  74.2771 285.8582 13.19726669157971
ONEWEB-0518             
1 54136U 22138Z   26025.30678567  .00000027  00000+0  35174-4 0  9994
2 54136  87.9236 333.4154 0001634  76.1572 283.9742 13.19727962157983
ONEWEB-0519             
1 54137U 22138AA  26025.25626302  .00000058  00000+0  11231-3 0  9990
2 54137  87.9247 333.4002 0001926  74.4970 285.6376 13.19726104157984
ONEWEB-0520             
1 54138U 22138AB  26025.29100968  .00000075  00000+0  15440-3 0  9995
2 54138  87.9252 333.3992 0001545  74.6412 285.4891 13.19726316157972
ONEWEB-0521             
1 54139U 22138AC  26024.79346369  .00000085  00000+0  17986-3 0  9995
2 54139  87.9247 333.4819 0001980  76.8899 283.2455 13.19726295157857
ONEWEB-0522             
1 54140U 22138AD  26025.30363485  .00000098  00000+0  21339-3 0  9994
2 54140  87.9250 333.3818 0001656  74.6893 285.4422 13.19727638157963
ONEWEB-0523             
1 54141U 22138AE  26025.22894442  .00000068  00000+0  13504-3 0  9990
2 54141  87.9225 302.9632 0002359  90.3559 269.7844 13.20770466160435
ONEWEB-0524             
1 54142U 22138AF  26025.21788173  .00000094  00000+0  19986-3 0  9992
2 54142  87.9226 302.9671 0001694 109.8146 250.3170 13.20772871160439
ONEWEB-0525             
1 54143U 22138AG  26025.32259996  .00000060  00000+0  11859-3 0  9995
2 54143  87.9245 333.3949 0001577  72.5402 287.5903 13.19726661157984
ONEWEB-0526             
1 54144U 22138AH  26025.27995250  .00000146  00000+0  33282-3 0  9999
2 54144  87.9251 333.3955 0001688  79.2602 280.8721 13.19726558157954
ONEWEB-0529             
1 54145U 22138AJ  26025.28311279  .00000138  00000+0  31303-3 0  9997
2 54145  87.9241 333.4175 0001559  76.8271 283.3036 13.19726311157977
ONEWEB-0531             
1 54146U 22138AK  26025.27942949  .00000030  00000+0  42735-4 0  9994
2 54146  87.9231 302.9503 0002264  99.4043 260.7346 13.20773288160441
ONEWEB-0535             
1 54147U 22138AL  26025.31627226  .00000082  00000+0  17250-3 0  9998
2 54147  87.9251 333.3829 0002140  83.2625 276.8751 13.19727767157996
ONEWEB-0536             
1 54148U 22138AM  26025.26679208  .00000158  00000+0  35674-3 0  9994
2 54148  87.9222 302.9917 0002223 103.5106 256.6275 13.20774795160432
ONEWEB-0527             
1 54642U 22166A   26025.10450948  .00000103  00000+0  21877-3 0  9995
2 54642  87.9204 272.5426 0001460  81.9821 278.1478 13.21825072152636
