[{"OBJECT_NAME":"ONEWEB-0516","OBJECT_ID":"2022-138X","EPOCH":"2026-01-25T07:24:04.316256","MEAN_MOTION":13.19726314,"ECCENTRICITY":0.00016593,"INCLINATION":87.9236,"RA_OF_ASC_NODE":333.4135,"ARG_OF_PERICENTER":81.1886,"MEAN_ANOMALY":278.9434,"EPHEMERIS_TYPE":0,"CLASSIFICATION_TYPE":"U","NORAD_CAT_ID":54134,"ELEMENT_SET_NO":999,"REV_AT_EPOCH":15798,"BSTAR":0.00012484896,"MEAN_MOTION_DOT":6.3e-7,"MEAN_MOTION_DDOT":0},{"OBJECT_NAME":"ONEWEB-0517","OBJECT_ID":"2022-138Y","EPOCH":"2026-01-25T05:05:18.787200","MEAN_MOTION":13.19726669,"ECCENTRICITY":0.00020031,"INCLINATION":87.9245,"RA_OF_ASC_NODE":333.4184,"ARG_OF_PERICENTER":74.2771,"MEAN_ANOMALY":285.8582,"EPHEMERIS_TYPE":0,"CLASSIFICATION_TYPE":"U","NORAD_CAT_ID":54135,"ELEMENT_SET_NO":999,"REV_AT_EPOCH":15797,"BSTAR":-2.305847e-6,"MEAN_MOTION_DOT":1.2e-7,"MEAN_MOTION_DDOT":0},{"OBJECT_NAME":"ONEWEB-0518","OBJECT_ID":"2022-138Z","EPOCH":"2026-01-25T07:21:46.281888","MEAN_MOTION":13.19727962,"ECCENTRICITY":0.00016348,"INCLINATION":87.9236,"RA_OF_ASC_NODE":333.4154,"ARG_OF_PERICENTER":76.1572,"MEAN_ANOMALY":283.9742,"EPHEMERIS_TYPE":0,"CLASSIFICATION_TYPE":"U","NORAD_CAT_ID":54136,"ELEMENT_SET_NO":999,"REV_AT_EPOCH":15798,"BSTAR":3.5173867e-5,"MEAN_MOTION_DOT":2.7e-7,"MEAN_MOTION_DDOT":0},{"OBJECT_NAME":"ONEWEB-0519","OBJECT_ID":"2022-138AA","EPOCH":"2026-01-25T06:09:01.124928","MEAN_MOTION":13.19726104,"ECCENTRICITY":0.00019264,"INCLINATION":87.9247,"RA_OF_ASC_NODE":333.4002,"ARG_OF_PERICENTER":74.497,"MEAN_ANOMALY":285.6376,"EPHEMERIS_TYPE":0,"CLASSIFICATION_TYPE":"U","NORAD_CAT_ID":54137,"ELEMENT_SET_NO":999,"REV_AT_EPOCH":15798,"BSTAR":0.00011231473,"MEAN_MOTION_DOT":5.8e-7,"MEAN_MOTION_DDOT":0},{"OBJECT_NAME":"ONEWEB-0520","OBJECT_ID":"2022-138AB","EPOCH":"2026-01-25T06:59:03.236352","MEAN_MOTION":13.19726316,"ECCENTRICITY":0.0001545,"INCLINATION":87.9252,"RA_OF_ASC_NODE":333.3992,"ARG_OF_PERICENTER":74.6412,"MEAN_ANOMALY":285.4891,"EPHEMERIS_TYPE":0,"CLASSIFICATION_TYPE":"U","NORAD_CAT_ID":54138,"ELEMENT_SET_NO":999,"REV_AT_EPOCH":15797,"BSTAR":0.00015439887,"MEAN_MOTION_DOT":7.5e-7,"MEAN_MOTION_DDOT":0},{"OBJECT_NAME":"ONEWEB-0521","OBJECT_ID":"2022-138AC","EPOCH":"2026-01-24T19:02:35.262816","MEAN_MOTION":13.19726295,"ECCENTRICITY":0.00019804,"INCLINATION":87.9247,"RA_OF_ASC_NODE":333.4819,"ARG_OF_PERICENTER":76.8899,"MEAN_ANOMALY":283.2455,"EPHEMERIS_TYPE":0,"CLASSIFICATION_TYPE":"U","NORAD_CAT_ID":54139,"ELEMENT_SET_NO":999,"REV_AT_EPOCH":15785,"BSTAR":0.00017985926,"MEAN_MOTION_DOT":8.5e-7,"MEAN_MOTION_DDOT":0},{"OBJECT_NAME":"ONEWEB-0522","OBJECT_ID":"2022-138AD","EPOCH":"2026-01-25T07:17:14.051040","MEAN_MOTION":13.19727638,"ECCENTRICITY":0.00016564,"INCLINATION":87.925,"RA_OF_ASC_NODE":333.3818,"ARG_OF_PERICENTER":74.6893,"MEAN_ANOMALY":285.4422,"EPHEMERIS_TYPE":0,"CLASSIFICATION_TYPE":"U","NORAD_CAT_ID":54140,"ELEMENT_SET_NO":999,"REV_AT_EPOCH":15796,"BSTAR":0.00021339469,"MEAN_MOTION_DOT":9.8e-7,"MEAN_MOTION_DDOT":0},{"OBJECT_NAME":"ONEWEB-0523","OBJECT_ID":"2022-138AE","EPOCH":"2026-01-25T05:29:40.797888","MEAN_MOTION":13.20770466,"ECCENTRICITY":0.00023597,"INCLINATION":87.9225,"RA_OF_ASC_NODE":302.9632,"ARG_OF_PERICENTER":90.3559,"MEAN_ANOMALY":269.7844,"EPHEMERIS_TYPE":0,"CLASSIFICATION_TYPE":"U","NORAD_CAT_ID":54141,"ELEMENT_SET_NO":999,"REV_AT_EPOCH":16043,"BSTAR":0.00013503536,"MEAN_MOTION_DOT":6.8e-7,"MEAN_MOTION_DDOT":0},{"OBJECT_NAME":"ONEWEB-0524","OBJECT_ID":"2022-138AF","EPOCH":"2026-01-25T05:13:44.981472","MEAN_MOTION":13.20772871,"ECCENTRICITY":0.00016947,"INCLINATION":87.9226,"RA_OF_ASC_NODE":302.9671,"ARG_OF_PERICENTER":109.8146,"MEAN_ANOMALY":250.317,"EPHEMERIS_TYPE":0,"CLASSIFICATION_TYPE":"U","NORAD_CAT_ID":54142,"ELEMENT_SET_NO":999,"REV_AT_EPOCH":16043,"BSTAR":0.00019986078,"MEAN_MOTION_DOT":9.4e-7,"MEAN_MOTION_DDOT":0},{"OBJECT_NAME":"ONEWEB-0525","OBJECT_ID":"2022-138AG","EPOCH":"2026-01-25T07:44:32.636544","MEAN_MOTION":13.19726661,"ECCENTRICITY":0.00015778,"INCLINATION":87.9245,"RA_OF_ASC_NODE":333.3949,"ARG_OF_PERICENTER":72.5402,"MEAN_ANOMALY":287.5903,"EPHEMERIS_TYPE":0,"CLASSIFICATION_TYPE":"U","NORAD_CAT_ID":54143,"ELEMENT_SET_NO":999,"REV_AT_EPOCH":15798,"BSTAR":0.00011858746,"MEAN_MOTION_DOT":6.0e-7,"MEAN_MOTION_DDOT":0},{"OBJECT_NAME":"ONEWEB-0526","OBJECT_ID":"2022-138AH","EPOCH":"2026-01-25T06:43:07.896000","MEAN_MOTION":13.19726558,"ECCENTRICITY":0.00016886,"INCLINATION":87.9251,"RA_OF_ASC_NODE":333.3955,"ARG_OF_PERICENTER":79.2602,"MEAN_ANOMALY":280.8721,"EPHEMERIS_TYPE":0,"CLASSIFICATION_TYPE":"U","NORAD_CAT_ID":54144,"ELEMENT_SET_NO":999,"REV_AT_EPOCH":15795,"BSTAR":0.00033282402,"MEAN_MOTION_DOT":1.46e-6,"MEAN_MOTION_DDOT":0},{"OBJECT_NAME":"ONEWEB-0529","OBJECT_ID":"2022-138AJ","EPOCH":"2026-01-25T06:47:40.945056","MEAN_MOTION":13.19726311,"ECCENTRICITY":0.00015591,"INCLINATION":87.9241,"RA_OF_ASC_NODE":333.4175,"ARG_OF_PERICENTER":76.8271,"MEAN_ANOMALY":283.3036,"EPHEMERIS_TYPE":0,"CLASSIFICATION_TYPE":"U","NORAD_CAT_ID":54145,"ELEMENT_SET_NO":999,"REV_AT_EPOCH":15797,"BSTAR":0.00031302987,"MEAN_MOTION_DOT":1.38e-6,"MEAN_MOTION_DDOT":0},{"OBJECT_NAME":"ONEWEB-0531","OBJECT_ID":"2022-138AK","EPOCH":"2026-01-25T06:42:22.707936","MEAN_MOTION":13.20773288,"ECCENTRICITY":0.00022641,"INCLINATION":87.9231,"RA_OF_ASC_NODE":302.9503,"ARG_OF_PERICENTER":99.4043,"MEAN_ANOMALY":260.7346,"EPHEMERIS_TYPE":0,"CLASSIFICATION_TYPE":"U","NORAD_CAT_ID":54146,"ELEMENT_SET_NO":999,"REV_AT_EPOCH":16044,"BSTAR":4.2734704e-5,"MEAN_MOTION_DOT":3.0e-7,"MEAN_MOTION_DDOT":0},{"OBJECT_NAME":"ONEWEB-0535","OBJECT_ID":"2022-138AL","EPOCH":"2026-01-25T07:35:25.923264","MEAN_MOTION":13.19727767,"ECCENTRICITY":0.000214,"INCLINATION":87.9251,"RA_OF_ASC_NODE":333.3829,"ARG_OF_PERICENTER":83.2625,"MEAN_ANOMALY":276.8751,"EPHEMERIS_TYPE":0,"CLASSIFICATION_TYPE":"U","NORAD_CAT_ID":54147,"ELEMENT_SET_NO":999,"REV_AT_EPOCH":15799,"BSTAR":0.000172503,"MEAN_MOTION_DOT":8.2e-7,"MEAN_MOTION_DDOT":0},{"OBJECT_NAME":"ONEWEB-0536","OBJECT_ID":"2022-138AM","EPOCH":"2026-01-25T06:24:10.835712","MEAN_MOTION":13.20774795,"ECCENTRICITY":0.00022239,"INCLINATION":87.9222,"RA_OF_ASC_NODE":302.9917,"ARG_OF_PERICENTER":103.5106,"MEAN_ANOMALY":256.6275,"EPHEMERIS_TYPE":0,"CLASSIFICATION_TYPE":"U","NORAD_CAT_ID":54148,"ELEMENT_SET_NO":999,"REV_AT_EPOCH":16043,"BSTAR":0.00035673918,"MEAN_MOTION_DOT":1.58e-6,"MEAN_MOTION_DDOT":0},{"OBJECT_NAME":"ONEWEB-0527","OBJECT_ID":"2022-166A","EPOCH":"2026-01-25T02:30:29.619072","MEAN_MOTION":13.21825072,"ECCENTRICITY":0.00014606,"INCLINATION":87.9204,"RA_OF_ASC_NODE":272.5426,"ARG_OF_PERICENTER":81.9821,"MEAN_ANOMALY":278.1478,"EPHEMERIS_TYPE":0,"CLASSIFICATION_TYPE":"U","NORAD_CAT_ID":54642,"ELEMENT_SET_NO":999,"REV_AT_EPOCH":15263,"BSTAR":0.00021876665,"MEAN_MOTION_DOT":1.03e-6,"MEAN_MOTION_DDOT":0}]
